start=new Date('2022-04-11T00:00:00.000Z').valueOf();
sats=[{"ELEMENT_SET_NO":"999","PERIAPSIS":"428.761","PERIOD":"93.171","NORAD_CAT_ID":"50812","RCS_SIZE":"LARGE","MEAN_MOTION_DOT":"-0.00717821","REF_FRAME":"TEME","CENTER_NAME":"EARTH","MEAN_MOTION":"15.45545002","APOAPSIS":"430.797","GP_ID":"200943879","COUNTRY_CODE":"US","SEMIMAJOR_AXIS":"6807.914","SITE":"AFETR","BSTAR":"-0.01589300000000","TLE_LINE1":"1 50812U 22001K   22100.91667824 -.00717821  00000-0 -15893-1 0  9994","RA_OF_ASC_NODE":"96.3717","REV_AT_EPOCH":"368","TIME_SYSTEM":"UTC","DECAY_DATE":null,"FILE":"3396586","OBJECT_ID":"2022-001K","MEAN_ANOMALY":"286.6946","OBJECT_TYPE":"PAYLOAD","INCLINATION":"53.2172","MEAN_ELEMENT_THEORY":"SGP4","ECCENTRICITY":"0.00014950","LAUNCH_DATE":"2022-01-06","ARG_OF_PERICENTER":"42.7579","OBJECT_NAME":"STARLINK-3338","TLE_LINE2":"2 50812  53.2172  96.3717 0001495  42.7579 286.6946 15.45545002  3683","EPOCH":"2022-04-10T22:00:00.999936","MEAN_MOTION_DDOT":"0.0000000000000","EPHEMERIS_TYPE":"0","CLASSIFICATION_TYPE":"U"},{"COUNTRY_CODE":"US","SEMIMAJOR_AXIS":"6804.413","SITE":"AFETR","TLE_LINE1":"1 50813U 22001L   22100.91667824 -.00719103  00000-0 -15279-1 0  9998","BSTAR":"-0.01527900000000","RA_OF_ASC_NODE":"96.3751","REV_AT_EPOCH":"368","TIME_SYSTEM":"UTC","DECAY_DATE":null,"OBJECT_ID":"2022-001L","FILE":"3396586","MEAN_ELEMENT_THEORY":"SGP4","OBJECT_TYPE":"PAYLOAD","INCLINATION":"53.2174","MEAN_ANOMALY":"7.3918","ECCENTRICITY":"0.00015650","LAUNCH_DATE":"2022-01-06","ARG_OF_PERICENTER":"37.3764","EPOCH":"2022-04-10T22:00:00.999936","TLE_LINE2":"2 50813  53.2174  96.3751 0001565  37.3764   7.3918 15.46738082  3688","OBJECT_NAME":"STARLINK-3349","MEAN_MOTION_DDOT":"0.0000000000000","EPHEMERIS_TYPE":"0","CLASSIFICATION_TYPE":"U","ELEMENT_SET_NO":"999","PERIOD":"93.099","PERIAPSIS":"425.213","NORAD_CAT_ID":"50813","RCS_SIZE":"LARGE","MEAN_MOTION_DOT":"-0.00719103","REF_FRAME":"TEME","CENTER_NAME":"EARTH","MEAN_MOTION":"15.46738082","APOAPSIS":"427.343","GP_ID":"200944130"},{"PERIOD":"95.067","PERIAPSIS":"520.943","ELEMENT_SET_NO":"999","NORAD_CAT_ID":"50814","RCS_SIZE":"LARGE","MEAN_MOTION_DOT":"-0.00719234","REF_FRAME":"TEME","CENTER_NAME":"EARTH","APOAPSIS":"522.735","MEAN_MOTION":"15.14717288","GP_ID":"200942878","COUNTRY_CODE":"US","SEMIMAJOR_AXIS":"6899.974","SITE":"AFETR","BSTAR":"-0.04119600000000","TLE_LINE1":"1 50814U 22001M   22100.91667824 -.00719234  00000-0 -41196-1 0  9991","RA_OF_ASC_NODE":"103.1773","REV_AT_EPOCH":"364","DECAY_DATE":null,"TIME_SYSTEM":"UTC","OBJECT_ID":"2022-001M","FILE":"3396586","MEAN_ELEMENT_THEORY":"SGP4","OBJECT_TYPE":"PAYLOAD","INCLINATION":"53.2173","MEAN_ANOMALY":"301.4734","LAUNCH_DATE":"2022-01-06","ECCENTRICITY":"0.00012980","EPOCH":"2022-04-10T22:00:00.999936","TLE_LINE2":"2 50814  53.2173 103.1773 0001298  64.6924 301.4734 15.14717288  3643","OBJECT_NAME":"STARLINK-3324","ARG_OF_PERICENTER":"64.6924","EPHEMERIS_TYPE":"0","MEAN_MOTION_DDOT":"0.0000000000000","CLASSIFICATION_TYPE":"U"},{"REF_FRAME":"TEME","CENTER_NAME":"EARTH","MEAN_MOTION":"15.14334457","APOAPSIS":"524.177","GP_ID":"200943128","ELEMENT_SET_NO":"999","PERIOD":"95.091","PERIAPSIS":"521.827","NORAD_CAT_ID":"50815","RCS_SIZE":"LARGE","MEAN_MOTION_DOT":"-0.00720371","FILE":"3396586","OBJECT_ID":"2022-001N","OBJECT_TYPE":"PAYLOAD","MEAN_ELEMENT_THEORY":"SGP4","MEAN_ANOMALY":"269.3389","INCLINATION":"53.2173","ECCENTRICITY":"0.00017030","LAUNCH_DATE":"2022-01-06","ARG_OF_PERICENTER":"41.9584","TLE_LINE2":"2 50815  53.2173 103.1783 0001703  41.9584 269.3389 15.14334457  3647","OBJECT_NAME":"STARLINK-3234","EPOCH":"2022-04-10T22:00:00.999936","MEAN_MOTION_DDOT":"0.0000000000000","EPHEMERIS_TYPE":"0","CLASSIFICATION_TYPE":"U","COUNTRY_CODE":"US","SEMIMAJOR_AXIS":"6901.137","SITE":"AFETR","BSTAR":"-0.04171400000000","TLE_LINE1":"1 50815U 22001N   22100.91667824 -.00720371  00000-0 -41714-1 0  9992","RA_OF_ASC_NODE":"103.1783","REV_AT_EPOCH":"364","TIME_SYSTEM":"UTC","DECAY_DATE":null},{"REF_FRAME":"TEME","CENTER_NAME":"EARTH","MEAN_MOTION":"15.12981988","APOAPSIS":"528.490","GP_ID":"200919530","ELEMENT_SET_NO":"999","PERIAPSIS":"525.738","PERIOD":"95.176","NORAD_CAT_ID":"50816","MEAN_MOTION_DOT":"-0.00722903","RCS_SIZE":"LARGE","OBJECT_TYPE":"PAYLOAD","INCLINATION":"53.2174","MEAN_ELEMENT_THEORY":"SGP4","MEAN_ANOMALY":"91.5528","OBJECT_ID":"2022-001P","FILE":"3396554","ARG_OF_PERICENTER":"35.1004","TLE_LINE2":"2 50816  53.2174 103.1746 0001993  35.1004  91.5528 15.12981988 15986","EPOCH":"2022-04-10T22:00:00.999936","OBJECT_NAME":"STARLINK-3342","ECCENTRICITY":"0.00019930","LAUNCH_DATE":"2022-01-06","MEAN_MOTION_DDOT":"0.0000000000000","EPHEMERIS_TYPE":"0","CLASSIFICATION_TYPE":"U","SEMIMAJOR_AXIS":"6905.249","COUNTRY_CODE":"US","SITE":"AFETR","RA_OF_ASC_NODE":"103.1746","REV_AT_EPOCH":"1598","TLE_LINE1":"1 50816U 22001P   22100.91667824 -.00722903  00000-0 -43500-1 0  9991","BSTAR":"-0.04350000000000","TIME_SYSTEM":"UTC","DECAY_DATE":null},{"GP_ID":"200943630","MEAN_MOTION":"15.14461934","APOAPSIS":"523.760","CENTER_NAME":"EARTH","REF_FRAME":"TEME","RCS_SIZE":"LARGE","MEAN_MOTION_DOT":"-0.00719777","NORAD_CAT_ID":"50817","ELEMENT_SET_NO":"999","PERIAPSIS":"521.469","PERIOD":"95.083","CLASSIFICATION_TYPE":"U","EPHEMERIS_TYPE":"0","MEAN_MOTION_DDOT":"0.0000000000000","ECCENTRICITY":"0.00016600","LAUNCH_DATE":"2022-01-06","ARG_OF_PERICENTER":"43.0754","EPOCH":"2022-04-10T22:00:00.999936","TLE_LINE2":"2 50817  53.2174 103.1780 0001660  43.0754 286.5499 15.14461934  3645","OBJECT_NAME":"STARLINK-3341","OBJECT_ID":"2022-001Q","FILE":"3396586","MEAN_ANOMALY":"286.5499","OBJECT_TYPE":"PAYLOAD","MEAN_ELEMENT_THEORY":"SGP4","INCLINATION":"53.2174","TIME_SYSTEM":"UTC","DECAY_DATE":null,"BSTAR":"-0.04152700000000","TLE_LINE1":"1 50817U 22001Q   22100.91667824 -.00719777  00000-0 -41527-1 0  9994","REV_AT_EPOCH":"364","RA_OF_ASC_NODE":"103.1780","SITE":"AFETR","COUNTRY_CODE":"US","SEMIMAJOR_AXIS":"6900.750"},{"GP_ID":"200942378","APOAPSIS":"529.209","MEAN_MOTION":"15.12725336","CENTER_NAME":"EARTH","REF_FRAME":"TEME","MEAN_MOTION_DOT":"-0.00721198","RCS_SIZE":"LARGE","NORAD_CAT_ID":"50818","PERIAPSIS":"526.581","PERIOD":"95.192","ELEMENT_SET_NO":"999","CLASSIFICATION_TYPE":"U","EPHEMERIS_TYPE":"0","MEAN_MOTION_DDOT":"0.0000000000000","TLE_LINE2":"2 50818  53.2174 103.1732 0001903  35.3495  53.7195 15.12725336  3654","OBJECT_NAME":"STARLINK-3336","EPOCH":"2022-04-10T22:00:00.999936","ARG_OF_PERICENTER":"35.3495","LAUNCH_DATE":"2022-01-06","ECCENTRICITY":"0.00019030","INCLINATION":"53.2174","OBJECT_TYPE":"PAYLOAD","MEAN_ELEMENT_THEORY":"SGP4","MEAN_ANOMALY":"53.7195","FILE":"3396586","OBJECT_ID":"2022-001R","DECAY_DATE":null,"TIME_SYSTEM":"UTC","REV_AT_EPOCH":"365","RA_OF_ASC_NODE":"103.1732","TLE_LINE1":"1 50818U 22001R   22100.91667824 -.00721198  00000-0 -43705-1 0  9995","BSTAR":"-0.04370500000000","SITE":"AFETR","SEMIMAJOR_AXIS":"6906.030","COUNTRY_CODE":"US"},{"RCS_SIZE":"LARGE","MEAN_MOTION_DOT":"-0.00719444","NORAD_CAT_ID":"50819","PERIOD":"95.059","PERIAPSIS":"520.525","ELEMENT_SET_NO":"999","GP_ID":"200942628","APOAPSIS":"522.376","MEAN_MOTION":"15.14845227","CENTER_NAME":"EARTH","REF_FRAME":"TEME","DECAY_DATE":null,"TIME_SYSTEM":"UTC","TLE_LINE1":"1 50819U 22001S   22100.91667824 -.00719444  00000-0 -41059-1 0  9997","BSTAR":"-0.04105900000000","RA_OF_ASC_NODE":"103.1768","REV_AT_EPOCH":"364","SITE":"AFETR","COUNTRY_CODE":"US","SEMIMAJOR_AXIS":"6899.585","CLASSIFICATION_TYPE":"U","MEAN_MOTION_DDOT":"0.0000000000000","EPHEMERIS_TYPE":"0","LAUNCH_DATE":"2022-01-06","ECCENTRICITY":"0.00013420","EPOCH":"2022-04-10T22:00:00.999936","TLE_LINE2":"2 50819  53.2174 103.1768 0001342  58.8640 325.5144 15.14845227  3640","OBJECT_NAME":"STARLINK-3327","ARG_OF_PERICENTER":"58.8640","FILE":"3396586","OBJECT_ID":"2022-001S","OBJECT_TYPE":"PAYLOAD","MEAN_ELEMENT_THEORY":"SGP4","INCLINATION":"53.2174","MEAN_ANOMALY":"325.5144"},{"FILE":"3396586","OBJECT_ID":"2022-001T","INCLINATION":"53.2173","OBJECT_TYPE":"PAYLOAD","MEAN_ANOMALY":"105.6022","MEAN_ELEMENT_THEORY":"SGP4","ECCENTRICITY":"0.00018760","LAUNCH_DATE":"2022-01-06","ARG_OF_PERICENTER":"39.7853","TLE_LINE2":"2 50820  53.2173 103.1752 0001876  39.7853 105.6022 15.13110302  3651","OBJECT_NAME":"STARLINK-3339","EPOCH":"2022-04-10T22:00:00.999936","EPHEMERIS_TYPE":"0","MEAN_MOTION_DDOT":"0.0000000000000","CLASSIFICATION_TYPE":"U","COUNTRY_CODE":"US","SEMIMAJOR_AXIS":"6904.858","SITE":"AFETR","BSTAR":"-0.04340100000000","TLE_LINE1":"1 50820U 22001T   22100.91667824 -.00723790  00000-0 -43401-1 0  9991","REV_AT_EPOCH":"365","RA_OF_ASC_NODE":"103.1752","TIME_SYSTEM":"UTC","DECAY_DATE":null,"REF_FRAME":"TEME","CENTER_NAME":"EARTH","MEAN_MOTION":"15.13110302","APOAPSIS":"528.019","GP_ID":"200943880","ELEMENT_SET_NO":"999","PERIOD":"95.168","PERIAPSIS":"525.428","NORAD_CAT_ID":"50820","RCS_SIZE":"LARGE","MEAN_MOTION_DOT":"-0.00723790"},{"LAUNCH_DATE":"2022-01-06","ECCENTRICITY":"0.00017690","TLE_LINE2":"2 50821  53.2172 103.1766 0001769  45.8998 174.0423 15.13621832  3644","EPOCH":"2022-04-10T22:00:00.999936","OBJECT_NAME":"STARLINK-3346","ARG_OF_PERICENTER":"45.8998","FILE":"3396586","OBJECT_ID":"2022-001U","OBJECT_TYPE":"PAYLOAD","INCLINATION":"53.2172","MEAN_ELEMENT_THEORY":"SGP4","MEAN_ANOMALY":"174.0423","CLASSIFICATION_TYPE":"U","EPHEMERIS_TYPE":"0","MEAN_MOTION_DDOT":"0.0000000000000","SITE":"AFETR","COUNTRY_CODE":"US","SEMIMAJOR_AXIS":"6903.303","DECAY_DATE":null,"TIME_SYSTEM":"UTC","TLE_LINE1":"1 50821U 22001U   22100.91667824 -.00724372  00000-0 -42817-1 0  9999","BSTAR":"-0.04281700000000","RA_OF_ASC_NODE":"103.1766","REV_AT_EPOCH":"364","CENTER_NAME":"EARTH","REF_FRAME":"TEME","GP_ID":"200944131","APOAPSIS":"526.389","MEAN_MOTION":"15.13621832","PERIAPSIS":"523.947","PERIOD":"95.136","ELEMENT_SET_NO":"999","RCS_SIZE":"LARGE","MEAN_MOTION_DOT":"-0.00724372","NORAD_CAT_ID":"50821"}];
